NORAD_CAT_ID,OBJECT_NAME,OBJECT_TYPE,EPOCH,MEAN_MOTION,ECCENTRICITY,INCLINATION,RA_OF_ASC_NODE,ARG_OF_PERICENTER,MEAN_ANOMALY,BSTAR,MEAN_MOTION_DOT,MEAN_MOTION_DDOT,TLE_LINE0,TLE_LINE1,TLE_LINE2,SEMIMAJOR_AXIS,PERIOD,APOGEE,PERIGEE,DECAYED
51809.0,STARLINK-3607,PAYLOAD,2024-05-30 00:13:06,15.08847507,0.0001265,53.218,11.1236,87.2923,272.8214,8.2889e-05,1.032e-05,0.0,0 STARLINK-3607,1 51809U 22017AT  24151.00909938  .00001032  00000-0  82889-4 0  9991,2 51809  53.2180  11.1236 0001265  87.2923 272.8214 15.08847507126137,6917.857,95.437,540.598,538.847,0.0
51809.0,STARLINK-3607,PAYLOAD,2024-05-30 20:53:06,15.08845517,0.0001243,53.2175,7.2575,95.6895,264.4239,7.5207e-05,9.09e-06,0.0,0 STARLINK-3607,1 51809U 22017AT  24151.87021876  .00000909  00000-0  75207-4 0  9990,2 51809  53.2175   7.2575 0001243  95.6895 264.4239 15.08845517126267,6917.864,95.437,540.588,538.869,0.0
51809.0,STARLINK-3607,PAYLOAD,2024-05-31 14:22:21,15.08845182,0.0001331,53.2177,3.9865,105.7563,254.3576,5.65e-05,6.12e-06,0.0,0 STARLINK-3607,1 51809U 22017AT  24152.59885757  .00000612  00000-0  56500-4 0  9992,2 51809  53.2177   3.9865 0001331 105.7563 254.3576 15.08845182126379,6917.865,95.437,540.65,538.809,0.0
51809.0,STARLINK-3607,PAYLOAD,2024-05-31 20:43:54,15.08839995,0.0001383,53.2172,2.7983,91.0772,269.0378,5.8407e-05,6.42e-06,0.0,0 STARLINK-3607,1 51809U 22017AT  24152.86382051  .00000642  00000-0  58407-4 0  9992,2 51809  53.2172   2.7983 0001383  91.0772 269.0378 15.08839995126411,6917.88,95.438,540.702,538.789,0.0
51809.0,STARLINK-3607,PAYLOAD,2024-05-31 23:54:40,15.08842677,0.0001392,53.2178,2.2035,92.032,268.0832,3.6763e-05,2.97e-06,0.0,0 STARLINK-3607,1 51809U 22017AT  24152.99629937  .00000297  00000-0  36763-4 0  9990,2 51809  53.2178   2.2035 0001392  92.0320 268.0832 15.08842677126437,6917.872,95.437,540.7,538.774,0.0
51809.0,STARLINK-3607,PAYLOAD,2024-06-01 20:34:41,15.08834126,0.000118,53.2172,358.3355,86.8856,273.2271,-1.1349e-05,-4.68e-06,0.0,0 STARLINK-3607,1 51809U 22017AT  24153.85742745 -.00000468  00000-0 -11349-4 0  9994,2 51809  53.2172 358.3355 0001180  86.8856 273.2271 15.08834126126560,6917.898,95.438,540.58,538.947,0.0
51809.0,STARLINK-3607,PAYLOAD,2024-06-02 06:07:00,15.08839643,0.0001175,53.2174,356.5518,85.976,274.1366,3.1547e-05,2.14e-06,0.0,0 STARLINK-3607,1 51809U 22017AT  24154.25486332  .00000214  00000-0  31547-4 0  9995,2 51809  53.2174 356.5518 0001175  85.9760 274.1366 15.08839643126622,6917.881,95.438,540.559,538.934,0.0
51809.0,STARLINK-3607,PAYLOAD,2024-06-02 14:03:56,15.08830851,0.0001353,53.2195,355.07,103.4677,256.6466,2.9157e-05,1.76e-06,0.0,0 STARLINK-3607,1 51809U 22017AT  24154.58607056  .00000176  00000-0  29157-4 0  9990,2 51809  53.2195 355.0700 0001353 103.4677 256.6466 15.08830851126676,6917.908,95.438,540.709,538.837,0.0
51809.0,STARLINK-3607,PAYLOAD,2024-06-02 20:25:28,15.08833592,0.0001228,53.2196,353.882,91.9745,268.1388,6.189e-05,6.97e-06,0.0,0 STARLINK-3607,1 51809U 22017AT  24154.85102963  .00000697  00000-0  61890-4 0  9995,2 51809  53.2196 353.8820 0001228  91.9745 268.1388 15.08833592126715,6917.9,95.438,540.614,538.915,0.0
51809.0,STARLINK-3607,PAYLOAD,2024-06-03 13:54:43,15.08832638,0.0001855,53.2194,350.6051,96.5675,263.5529,0.00012783,1.746e-05,0.0,0 STARLINK-3607,1 51809U 22017AT  24155.57967041  .00001746  00000-0  12783-3 0  9993,2 51809  53.2194 350.6051 0001855  96.5675 263.5529 15.08832638126821,6917.903,95.438,541.051,538.485,0.0
51809.0,STARLINK-3607,PAYLOAD,2024-06-03 21:51:38,15.08839188,0.0001414,53.2183,349.1219,96.0885,264.0268,0.00011052,1.471e-05,0.0,0 STARLINK-3607,1 51809U 22017AT  24155.91086799  .00001471  00000-0  11052-3 0  9996,2 51809  53.2183 349.1219 0001414  96.0885 264.0268 15.08839188126875,6917.883,95.438,540.726,538.77,0.0
51809.0,STARLINK-3607,PAYLOAD,2024-06-04 05:48:31,15.08874549,8.82e-05,53.2182,347.6329,77.6884,282.4207,0.00035395,5.355e-05,0.0,0 STARLINK-3607,1 51809U 22017AT  24156.24203404  .00005355  00000-0  35395-3 0  9998,2 51809  53.2182 347.6329 0000882  77.6884 282.4207 15.08874549126924,6917.775,95.435,540.25,539.03,0.0
51809.0,STARLINK-3607,PAYLOAD,2024-06-04 21:42:26,15.08830116,0.0001676,53.2224,344.6585,86.2831,273.8353,-4.2422e-05,-9.63e-06,0.0,0 STARLINK-3607,1 51809U 22017AT  24156.90447621 -.00000963  00000-0 -42422-4 0  9994,2 51809  53.2224 344.6585 0001676  86.2831 273.8353 15.08830116127022,6917.911,95.438,540.935,538.616,0.0
51809.0,STARLINK-3607,PAYLOAD,2024-06-05 04:03:58,15.08841326,0.0001174,53.2218,343.4689,102.9984,257.114,4.7553e-05,4.69e-06,0.0,0 STARLINK-3607,1 51809U 22017AT  24157.16942499  .00000469  00000-0  47553-4 0  9995,2 51809  53.2218 343.4689 0001174 102.9984 257.1140 15.08841326127063,6917.876,95.437,540.553,538.929,0.0
51809.0,STARLINK-3607,PAYLOAD,2024-06-05 12:00:54,15.08833321,0.0001946,53.2158,341.9842,83.5016,276.6198,2.7802e-05,1.54e-06,0.0,0 STARLINK-3607,1 51809U 22017AT  24157.50063433  .00000154  00000-0  27802-4 0  9991,2 51809  53.2158 341.9842 0001946  83.5016 276.6198 15.08833321127118,6917.901,95.438,541.112,538.42,0.0
51809.0,STARLINK-3607,PAYLOAD,2024-06-05 18:22:27,15.08833126,0.0001788,53.2161,340.7941,80.0857,280.0336,6.2159e-05,7.01e-06,0.0,0 STARLINK-3607,1 51809U 22017AT  24157.76559440  .00000701  00000-0  62159-4 0  9999,2 51809  53.2161 340.7941 0001788  80.0857 280.0336 15.08833126127158,6917.901,95.438,541.003,538.529,0.0
51809.0,STARLINK-3607,PAYLOAD,2024-06-06 05:30:08,15.0885406,0.0001641,53.2159,338.7132,83.612,276.5059,-0.00016823,-2.966e-05,0.0,0 STARLINK-3607,1 51809U 22017AT  24158.22926648 -.00002966  00000-0 -16823-3 0  9992,2 51809  53.2159 338.7132 0001641  83.6120 276.5059 15.08854060127224,6917.837,95.437,540.838,538.567,0.0
51809.0,STARLINK-3607,PAYLOAD,2024-06-06 21:24:00,15.08857908,0.0002358,53.2156,335.7398,79.6428,280.483,-0.00015207,-2.709e-05,0.0,0 STARLINK-3607,1 51809U 22017AT  24158.89166978 -.00002709  00000-0 -15207-3 0  9997,2 51809  53.2156 335.7398 0002358  79.6428 280.4830 15.08857908127320,6917.826,95.436,541.322,538.059,0.0
51809.0,STARLINK-3607,PAYLOAD,2024-06-07 18:04:00,15.08843687,0.000264,53.2112,331.8696,97.9404,262.1888,0.00019296,2.784e-05,0.0,0 STARLINK-3607,1 51809U 22017AT  24159.75278800  .00002784  00000-0  19296-3 0  9994,2 51809  53.2112 331.8696 0002640  97.9404 262.1888 15.08843687127454,6917.869,95.437,541.56,537.908,0.0
51809.0,STARLINK-3607,PAYLOAD,2024-06-07 21:14:47,15.08835971,0.0001716,53.2178,331.2765,98.5904,261.5282,4.4283e-05,4.17e-06,0.0,0 STARLINK-3607,1 51809U 22017AT  24159.88527581  .00000417  00000-0  44283-4 0  9997,2 51809  53.2178 331.2765 0001716  98.5904 261.5282 15.08835971127472,6917.893,95.438,540.945,538.571,0.0
51809.0,STARLINK-3607,PAYLOAD,2024-06-08 21:05:33,15.08881425,0.0001529,53.2152,326.8196,79.5557,280.5608,-0.00045018,-7.454e-05,0.0,0 STARLINK-3607,1 51809U 22017AT  24160.87886324 -.00007454  00000-0 -45018-3 0  9997,2 51809  53.2152 326.8196 0001529  79.5557 280.5608 15.08881425127622,6917.754,95.435,540.676,538.561,0.0
51809.0,STARLINK-3607,PAYLOAD,2024-06-09 11:24:03,15.08833329,0.0001023,53.2102,324.1405,83.9347,276.1762,0.00014502,2.021e-05,0.0,0 STARLINK-3607,1 51809U 22017AT  24161.47503635  .00002021  00000-0  14502-3 0  9992,2 51809  53.2102 324.1405 0001023  83.9347 276.1762 15.08833329127718,6917.901,95.438,540.473,539.058,0.0
51809.0,STARLINK-3607,PAYLOAD,2024-06-09 17:45:36,15.08825382,5.14e-05,53.2206,322.9515,84.0428,276.0622,2.4513e-05,1.03e-06,0.0,0 STARLINK-3607,1 51809U 22017AT  24161.74000572  .00000103  00000-0  24513-4 0  9997,2 51809  53.2206 322.9515 0000514  84.0428 276.0622 15.08825382127755,6917.925,95.438,540.146,539.434,0.0
51809.0,STARLINK-3607,PAYLOAD,2024-06-10 03:17:54,15.08834175,0.0001585,53.2202,321.1676,97.7583,262.3589,2.6041e-05,1.26e-06,0.0,0 STARLINK-3607,1 51809U 22017AT  24162.13744180  .00000126  00000-0  26041-4 0  9994,2 51809  53.2202 321.1676 0001585  97.7583 262.3589 15.08834175127819,6917.898,95.438,540.86,538.667,0.0
51809.0,STARLINK-3607,PAYLOAD,2024-06-10 14:25:37,15.08832002,0.0001574,53.2204,319.088,94.8214,265.2958,4.9066e-05,4.93e-06,0.0,0 STARLINK-3607,1 51809U 22017AT  24162.60112477  .00000493  00000-0  49066-4 0  9993,2 51809  53.2204 319.0880 0001574  94.8214 265.2958 15.08832002127887,6917.905,95.438,540.859,538.681,0.0
51809.0,STARLINK-3607,PAYLOAD,2024-06-10 17:36:22,15.08839225,0.0001041,53.216,318.4897,76.3506,283.7602,0.00011487,1.541e-05,0.0,0 STARLINK-3607,1 51809U 22017AT  24162.73359854  .00001541  00000-0  11487-3 0  9999,2 51809  53.2160 318.4897 0001041  76.3506 283.7602 15.08839225127905,6917.883,95.438,540.468,539.028,0.0
51809.0,STARLINK-3607,PAYLOAD,2024-06-11 03:08:41,15.08848103,0.0001291,53.2189,316.7094,94.9456,265.1684,0.00011423,1.531e-05,0.0,0 STARLINK-3607,1 51809U 22017AT  24163.13103324  .00001531  00000-0  11423-3 0  9992,2 51809  53.2189 316.7094 0001291  94.9456 265.1684 15.08848103127968,6917.856,95.437,540.614,538.828,0.0
51809.0,STARLINK-3607,PAYLOAD,2024-06-11 14:16:24,15.08829975,0.0001043,53.2206,314.6289,99.9695,260.1415,0.00014411,2.006e-05,0.0,0 STARLINK-3607,1 51809U 22017AT  24163.59472556  .00002006  00000-0  14411-3 0  9996,2 51809  53.2206 314.6289 0001043  99.9695 260.1415 15.08829975128038,6917.911,95.438,540.498,539.054,0.0
51809.0,STARLINK-3607,PAYLOAD,2024-06-11 17:27:10,15.08832656,0.0001012,53.2182,314.0319,90.2974,269.8134,0.00015251,2.14e-05,0.0,0 STARLINK-3607,1 51809U 22017AT  24163.72720383  .00002140  00000-0  15251-3 0  9997,2 51809  53.2182 314.0319 0001012  90.2974 269.8134 15.08832656128055,6917.903,95.438,540.468,539.068,0.0
51809.0,STARLINK-3607,PAYLOAD,2024-06-12 17:17:57,15.08839059,9.19e-05,53.2176,309.5689,74.3014,285.808,2.0465e-05,3.8e-07,0.0,0 STARLINK-3607,1 51809U 22017AT  24164.72080441  .00000038  00000-0  20465-4 0  9990,2 51809  53.2176 309.5689 0000919  74.3014 285.8080 15.08839059128209,6917.883,95.438,540.384,539.113,0.0
